#dP2018  8 15  0  0  0.00000000      96 __u+U ITR00 FIT  IAC
## 2014 259200.00000000   900.00000000 58345 0.0000000000000
+   85   C01C02C03C04C05C07C08C09C10C11C12C13C14E01E02E03E04
+        E05E07E08E09E11E12E14E18E19E24E26E30G01G02G03G05G06
+        G07G08G09G10G11G12G13G14G15G16G17G18G19G20G21G22G23
+        G24G25G26G27G28G29G30G31G32J01J02J03R01R02R03R04R07
+        R08R09R10R11R13R14R15R16R17R18R19R20R21R22R23R24R26
++        12 12 13 12 12  9  9  9  9  8  8  9  9  7  7  7  7
++         6  7  7  7  7  7  7  7  7  7  7  7  3  3  3  3  3
++         3  3  3  4  3  3  3  4  3  3  3  3  3  3  3  3  4
++         3  3  3  3  3  3  3  3  4 11 10 11  5  6  6  6  5
++         5  5  5  6  6  6  6  5  5  5  5  5  5  6  6  6  8
%c M  cc GPS ccc cccc cccc cccc cccc ccccc ccccc ccccc ccccc
%c cc cc ccc ccc cccc cccc cccc cccc ccccc ccccc ccccc ccccc
%f  0.0000000  0.000000000  0.00000000000  0.000000000000000
%f  0.0000000  0.000000000  0.00000000000  0.000000000000000
%i    0    0    0    0      0      0      0      0         0
%i    0    0    0    0      0      0      0      0         0
/* INFORMATION & ANALYSIS CENTER (IAC) OF MCC   (RAPID DATA)
/* S/V CLOCKS ARE ALIGNED TO GPS & GLONASS TIME RESPECTIVELY
/* USING THE BROADCAST EPHEMERIS                            
/* PCV:IGS14_2000 OL/AL:FES2004  NONE     YN ORB:CoN CLK:CoN
*  2018 08 15 10 15  0.00000000
PC01 -32349.118637  27031.332222  -1015.583313    473.029217
PC02   4388.960457  41908.844414   1274.646038   -104.322407
PC03 -14782.364911  39498.475237   -426.955209    375.149185
PC04 -39622.810267  14384.249338   -462.390851   -234.904631
PC05  21949.669469  35997.976659   1061.845518    -49.099782
PC07 -18417.293640  21393.609073 -31316.253677     22.732672
PC08 -23510.557560  34021.907529   7500.340597    484.538113
PC09   1791.931182  40344.269743  12861.897612     27.460479
PC10  -1939.813523  25482.848927 -33385.756865      6.993548
PC11  -9836.115696  25304.315255  -6224.244372   -636.286084
PC12 -16039.187502   9552.569851 -20659.373285    560.481161
PC13 -12817.106016  35121.100822  19255.108704   -227.841810
PC14  -6918.333545  15022.130454  22541.980061    293.942190
PE01  -5758.216265  15691.008371 -24427.301929   -413.215970
PE02   5695.377819 -15702.225437  24439.728980     23.572623
PE03   -742.689378 -25371.405289 -15233.487649    -65.943664
PE04  14833.946313  25505.220973  -2356.421512    -96.667687
PE05  13875.284701 -10356.263284 -24001.234782    210.998382
PE07 -20329.718080 -10660.542853  18706.641898    -20.429753
PE08 -15084.353416 -25364.278635   2404.443307   6523.071995
PE09  20312.534258  10545.352456 -18751.205786   6705.422218
PE11  18721.725513   -810.785949  22899.234274   3739.510106
PE12   5960.434781  18532.190922  22299.239742   4831.825366
PE14 -17512.178650 -14735.990291 -21196.282551   6535.082458
PE18   8806.579714  21407.878087  11017.165386   5981.579351
PE19   -626.728556  24449.368932  16684.479874    -13.173026
PE24  29035.744178   4190.266799  -3967.569426   6546.071065
PE26 -20325.379455  18952.042833 -10185.303113   5591.506868
PE30 -16527.823160 -14116.371529  20090.395518   5594.215464
PG01   7466.334727 -18929.032818 -17067.776537    -76.679444
PG02 -21278.940093  15643.415506   -543.618550     27.468630
PG03  -3338.543295 -17193.980546 -20014.710068    121.841934
PG05 -17483.618324   6748.735277  18791.645728     -3.180519
PG06 -22022.587291   2886.905686 -14553.833145    375.998336
PG07  -8721.068931 -12692.829361  21875.072301    141.392188
PG08   6488.081851 -22681.046780  12091.160976   -111.716880
PG09  -7795.352988 -24013.761231   8199.333923    510.929975
PG10  24344.757391  10744.400302  -1443.695668    186.670481
PG11   6866.572332 -24376.974330  -8868.134488   -724.631658
PG12  -3135.814346  14941.576311 -21944.969550    313.931280
PG13 -12422.660431  16285.414937  16795.896967    -90.948459
PG14  15073.532145   -555.585379 -21553.985751    -97.613384
PG15  -2696.743115  24698.318620   8605.229519   -348.458521
PG16  18691.741297  -3164.038912  18617.740361     13.490776
PG17 -13512.028397 -10405.137491 -20006.945402    -67.077578
PG18  14719.502016 -19793.961865 -10093.441356     45.863963
PG19 -14935.508505    645.806879 -22256.183869   -411.601046
PG20  20899.582629  14127.631879   8343.919752    514.183413
PG21  12578.515643  10284.700262  21808.473931   -352.305538
PG22   5431.794226 -14901.256552 -21068.530101   -489.778415
PG23  -1248.943320 -26251.587129  -1291.200162   -212.773576
PG24 -10582.985649  20120.727683 -13605.044520    -53.983551
PG25  12458.216864  17911.922476 -15487.617216   -631.927946
PG26  24130.910462   2735.114307  10906.603112    -51.101021
PG27  12242.231485 -12990.785218  19494.226912    353.768261
PG28 -22184.104331 -14525.864552   1458.665866    738.337896
PG29   4947.063967  25074.934537   7204.567062    395.607816
PG30 -17924.884230  -5271.258488  18958.416957     37.386631
PG31  23194.287810  -4189.373949 -12616.837421    100.527539
PG32  14836.689898   9173.545355 -20011.669541   -451.001675
PJ01 -24087.651652  24442.794138  29638.941857   -141.192602
PJ02 -35942.285498  17754.463420  -8499.602967     -9.424637
PJ03 -19204.082255  28904.180071 -19340.436003     -3.718496
PR01   3295.962448  17997.738284  17769.902568     30.557502
PR02  15585.562381  20225.324910   -159.478222    324.812890
PR03  17123.583066   9481.281528 -16339.356080    140.559574
PR04   8286.890202  -7201.184806 -23005.599327    272.446383
PR07 -16996.093829  -9007.265659  16771.150749    -44.839454
PR08  -8777.262240   6619.850494  23071.436128     21.771045
PR09 -14860.778281  -7597.447720  19334.074952     23.340204
PR10 -24895.650699    306.257284   5743.795585     29.763251
PR11 -20873.030121   8413.293539 -12041.769275    -37.783222
PR13  14583.702822   7263.069551 -19634.376987    -13.603376
PR14  24811.590020   -308.287038  -5847.978943     30.056736
PR15  23255.796356  -6648.497116   8254.209290    -14.717364
PR16   5550.982775 -11463.318958  22101.001764     99.370462
PR17  11789.576321  -1128.018725  22598.814309    156.210673
PR18  13652.771346 -17092.424481  13078.995656    206.859611
PR19   8569.271254 -23705.498716  -3934.989346    -58.033521
PR20  -2621.609508 -15972.682986 -19698.402757   -348.765994
PR21 -11823.737854   1518.015512 -22553.072633      1.922025
PR22 -13415.663661  18689.153579 -11153.683749    -59.052411
PR23  -5984.348430  23469.155464   7986.856553    172.082050
PR24   3563.447882  15106.098815  20214.825183   -170.147288
PR26  -2244.024751 -16877.483687 -18998.308945     40.998847
EOF
